ONEWEB-0283             
1 49001U 21060AL  25054.22850814  .00000017  00000+0  10153-4 0  9990
2 49001  87.9122 324.2531 0001875  85.4993 274.6352 13.16593308177917
ONEWEB-0284             
1 49002U 21060AM  25054.22220244 -.00000519  00000+0 -13923-2 0  9994
2 49002  87.9124 324.2282 0002648  75.5362 284.6063 13.16579408177883
ONEWEB-0285             
1 49075U 21075A   25054.13843518  .00000405  00000+0  10890-2 0  9997
2 49075  87.8809  86.0264 0001925  92.6201 267.5148 13.12441978173352
ONEWEB-0287             
1 49077U 21075C   25054.16130642  .00000040  00000+0  69742-4 0  9996
2 49077  87.9036 101.2966 0001476  92.0617 268.0684 13.17649310171514
ONEWEB-0288             
1 49078U 21075D   25054.09611603 -.00000043  00000+0 -15372-3 0  9994
2 49078  87.8806  86.0325 0001838  88.2400 271.8939 13.12440176173338
ONEWEB-0289             
1 49079U 21075E   25054.18996682  .00000075  00000+0  16008-3 0  9998
2 49079  87.9035 101.3211 0002199  85.4911 274.6471 13.17648170172099
